start=new Date('2022-10-18T00:00:00.000Z').valueOf();
sats=[{"MEAN_ELEMENT_THEORY":"SGP4","RCS_SIZE":"LARGE","LAUNCH_DATE":"2022-08-31","PERIOD":"95.919","MEAN_MOTION":"15.01260820","APOAPSIS":"564.811","REF_FRAME":"TEME","OBJECT_ID":"2022-105M","TLE_LINE2":"2 53659  97.6536 170.4511 0002595 132.6861 339.9862 15.01260820  1302","GP_ID":"215451527","MEAN_ANOMALY":"339.9862","NORAD_CAT_ID":"53659","MEAN_MOTION_DDOT":"0.0000000000000","PERIAPSIS":"561.208","ARG_OF_PERICENTER":"132.6861","INCLINATION":"97.6536","EPOCH":"2022-10-17T22:00:00.999936","ECCENTRICITY":"0.00025950","ELEMENT_SET_NO":"999","COUNTRY_CODE":"US","TLE_LINE1":"1 53659U 22105M   22290.91667824  .00006734  00000-0  52832-3 0  9999","BSTAR":"0.00052832000000","FILE":"3620294","CENTER_NAME":"EARTH","TIME_SYSTEM":"UTC","EPHEMERIS_TYPE":"0","SITE":"AFWTR","MEAN_MOTION_DOT":"0.00006734","SEMIMAJOR_AXIS":"6941.144","RA_OF_ASC_NODE":"170.4511","DECAY_DATE":null,"REV_AT_EPOCH":"130","OBJECT_NAME":"STARLINK-4463","CLASSIFICATION_TYPE":"U","OBJECT_TYPE":"PAYLOAD"},{"RCS_SIZE":"LARGE","MEAN_ELEMENT_THEORY":"SGP4","LAUNCH_DATE":"2022-08-31","PERIOD":"95.919","APOAPSIS":"564.649","MEAN_MOTION":"15.01267173","OBJECT_ID":"2022-105N","REF_FRAME":"TEME","GP_ID":"215452264","TLE_LINE2":"2 53660  97.6544 170.4508 0002390 134.2497  18.4630 15.01267173  1305","MEAN_ANOMALY":"18.4630","NORAD_CAT_ID":"53660","MEAN_MOTION_DDOT":"0.0000000000000","PERIAPSIS":"561.331","ELEMENT_SET_NO":"999","ECCENTRICITY":"0.00023900","INCLINATION":"97.6544","EPOCH":"2022-10-17T22:00:00.999936","ARG_OF_PERICENTER":"134.2497","BSTAR":"-0.00226670000000","TLE_LINE1":"1 53660U 22105N   22290.91667824 -.00029060  00000-0 -22667-2 0  9992","COUNTRY_CODE":"US","EPHEMERIS_TYPE":"0","FILE":"3620294","CENTER_NAME":"EARTH","TIME_SYSTEM":"UTC","MEAN_MOTION_DOT":"-0.00029060","SITE":"AFWTR","RA_OF_ASC_NODE":"170.4508","SEMIMAJOR_AXIS":"6941.125","DECAY_DATE":null,"REV_AT_EPOCH":"130","OBJECT_NAME":"STARLINK-4473","CLASSIFICATION_TYPE":"U","OBJECT_TYPE":"PAYLOAD"},{"LAUNCH_DATE":"2022-08-31","MEAN_ELEMENT_THEORY":"SGP4","RCS_SIZE":"LARGE","MEAN_MOTION":"15.01253441","APOAPSIS":"564.595","PERIOD":"95.920","MEAN_ANOMALY":"0.2120","TLE_LINE2":"2 53661  97.6550 170.4510 0002252 132.6059   0.2120 15.01253441  1305","GP_ID":"215451780","REF_FRAME":"TEME","OBJECT_ID":"2022-105P","PERIAPSIS":"561.469","NORAD_CAT_ID":"53661","MEAN_MOTION_DDOT":"0.0000000000000","TLE_LINE1":"1 53661U 22105P   22290.91667824 -.00040858  00000-0 -31953-2 0  9999","COUNTRY_CODE":"US","BSTAR":"-0.00319530000000","ARG_OF_PERICENTER":"132.6059","EPOCH":"2022-10-17T22:00:00.999936","INCLINATION":"97.6550","ELEMENT_SET_NO":"999","ECCENTRICITY":"0.00022520","DECAY_DATE":null,"SEMIMAJOR_AXIS":"6941.167","RA_OF_ASC_NODE":"170.4510","SITE":"AFWTR","MEAN_MOTION_DOT":"-0.00040858","CENTER_NAME":"EARTH","FILE":"3620294","EPHEMERIS_TYPE":"0","TIME_SYSTEM":"UTC","OBJECT_NAME":"STARLINK-4472","REV_AT_EPOCH":"130","OBJECT_TYPE":"PAYLOAD","CLASSIFICATION_TYPE":"U"},{"MEAN_ANOMALY":"40.5320","TLE_LINE2":"2 53662  97.6540 170.4514 0002341 132.2117  40.5320 15.01263340  1307","GP_ID":"215452112","REF_FRAME":"TEME","OBJECT_ID":"2022-105Q","PERIAPSIS":"561.377","NORAD_CAT_ID":"53662","MEAN_MOTION_DDOT":"0.0000000000000","LAUNCH_DATE":"2022-08-31","MEAN_ELEMENT_THEORY":"SGP4","RCS_SIZE":"MEDIUM","MEAN_MOTION":"15.01263340","APOAPSIS":"564.626","PERIOD":"95.919","OBJECT_NAME":"STARLINK-4357","REV_AT_EPOCH":"130","OBJECT_TYPE":"PAYLOAD","CLASSIFICATION_TYPE":"U","TLE_LINE1":"1 53662U 22105Q   22290.91667824 -.00029814  00000-0 -23261-2 0  9992","COUNTRY_CODE":"US","BSTAR":"-0.00232610000000","ARG_OF_PERICENTER":"132.2117","ELEMENT_SET_NO":"999","ECCENTRICITY":"0.00023410","INCLINATION":"97.6540","EPOCH":"2022-10-17T22:00:00.999936","DECAY_DATE":null,"SEMIMAJOR_AXIS":"6941.137","RA_OF_ASC_NODE":"170.4514","MEAN_MOTION_DOT":"-0.00029814","SITE":"AFWTR","EPHEMERIS_TYPE":"0","FILE":"3620294","TIME_SYSTEM":"UTC","CENTER_NAME":"EARTH"},{"NORAD_CAT_ID":"53663","MEAN_MOTION_DDOT":"0.0000000000000","PERIAPSIS":"561.330","OBJECT_ID":"2022-105R","REF_FRAME":"TEME","GP_ID":"215451946","TLE_LINE2":"2 53663  97.6551 170.4507 0002274 135.4663   7.3493 15.01293695  1306","MEAN_ANOMALY":"7.3493","PERIOD":"95.917","APOAPSIS":"564.486","MEAN_MOTION":"15.01293695","RCS_SIZE":"LARGE","MEAN_ELEMENT_THEORY":"SGP4","LAUNCH_DATE":"2022-08-31","CLASSIFICATION_TYPE":"U","OBJECT_TYPE":"PAYLOAD","REV_AT_EPOCH":"130","OBJECT_NAME":"STARLINK-4457","FILE":"3620294","CENTER_NAME":"EARTH","TIME_SYSTEM":"UTC","EPHEMERIS_TYPE":"0","SITE":"AFWTR","MEAN_MOTION_DOT":"-0.00083413","RA_OF_ASC_NODE":"170.4507","SEMIMAJOR_AXIS":"6941.043","DECAY_DATE":null,"INCLINATION":"97.6551","EPOCH":"2022-10-17T22:00:00.999936","ECCENTRICITY":"0.00022740","ELEMENT_SET_NO":"999","ARG_OF_PERICENTER":"135.4663","BSTAR":"-0.00656040000000","TLE_LINE1":"1 53663U 22105R   22290.91667824 -.00083413  00000-0 -65604-2 0  9995","COUNTRY_CODE":"US"},{"RCS_SIZE":"LARGE","MEAN_ELEMENT_THEORY":"SGP4","LAUNCH_DATE":"2022-08-31","PERIOD":"95.922","APOAPSIS":"564.858","MEAN_MOTION":"15.01221404","OBJECT_ID":"2022-105S","REF_FRAME":"TEME","GP_ID":"215452509","TLE_LINE2":"2 53664  97.6544 170.4507 0002489 130.5474  52.1715 15.01221404  1307","MEAN_ANOMALY":"52.1715","NORAD_CAT_ID":"53664","MEAN_MOTION_DDOT":"0.0000000000000","PERIAPSIS":"561.403","ECCENTRICITY":"0.00024890","EPOCH":"2022-10-17T22:00:00.999936","ELEMENT_SET_NO":"999","INCLINATION":"97.6544","ARG_OF_PERICENTER":"130.5474","BSTAR":"0.00059270000000","TLE_LINE1":"1 53664U 22105S   22290.91667824  .00007554  00000-0  59270-3 0  9999","COUNTRY_CODE":"US","FILE":"3620294","EPHEMERIS_TYPE":"0","TIME_SYSTEM":"UTC","CENTER_NAME":"EARTH","MEAN_MOTION_DOT":"0.00007554","SITE":"AFWTR","RA_OF_ASC_NODE":"170.4507","SEMIMAJOR_AXIS":"6941.266","DECAY_DATE":null,"REV_AT_EPOCH":"130","OBJECT_NAME":"STARLINK-4471","CLASSIFICATION_TYPE":"U","OBJECT_TYPE":"PAYLOAD"},{"OBJECT_TYPE":"PAYLOAD","CLASSIFICATION_TYPE":"U","OBJECT_NAME":"STARLINK-4334","REV_AT_EPOCH":"130","DECAY_DATE":null,"SEMIMAJOR_AXIS":"6941.200","RA_OF_ASC_NODE":"170.4512","MEAN_MOTION_DOT":"0.00004947","SITE":"AFWTR","FILE":"3620294","CENTER_NAME":"EARTH","EPHEMERIS_TYPE":"0","TIME_SYSTEM":"UTC","TLE_LINE1":"1 53665U 22105T   22290.91667824  .00004947  00000-0  38966-3 0  9992","COUNTRY_CODE":"US","BSTAR":"0.00038966000000","ARG_OF_PERICENTER":"127.6101","INCLINATION":"97.6549","ECCENTRICITY":"0.00024890","EPOCH":"2022-10-17T22:00:00.999936","ELEMENT_SET_NO":"999","PERIAPSIS":"561.338","NORAD_CAT_ID":"53665","MEAN_MOTION_DDOT":"0.0000000000000","MEAN_ANOMALY":"33.8312","TLE_LINE2":"2 53665  97.6549 170.4512 0002489 127.6101  33.8312 15.01242658  1306","GP_ID":"215451362","REF_FRAME":"TEME","OBJECT_ID":"2022-105T","MEAN_MOTION":"15.01242658","APOAPSIS":"564.793","PERIOD":"95.921","LAUNCH_DATE":"2022-08-31","MEAN_ELEMENT_THEORY":"SGP4","RCS_SIZE":"LARGE"},{"OBJECT_ID":"2022-105U","REF_FRAME":"TEME","MEAN_ANOMALY":"65.9760","GP_ID":"215452357","TLE_LINE2":"2 53666  97.6548 170.4511 0002197 135.4543  65.9760 15.01213060  1306","MEAN_MOTION_DDOT":"0.0000000000000","NORAD_CAT_ID":"53666","PERIAPSIS":"561.632","RCS_SIZE":"LARGE","MEAN_ELEMENT_THEORY":"SGP4","LAUNCH_DATE":"2022-08-31","PERIOD":"95.922","APOAPSIS":"564.682","MEAN_MOTION":"15.01213060","REV_AT_EPOCH":"130","OBJECT_NAME":"STARLINK-4449","CLASSIFICATION_TYPE":"U","OBJECT_TYPE":"PAYLOAD","ECCENTRICITY":"0.00021970","INCLINATION":"97.6548","EPOCH":"2022-10-17T22:00:00.999936","ELEMENT_SET_NO":"999","ARG_OF_PERICENTER":"135.4543","BSTAR":"0.00045964000000","COUNTRY_CODE":"US","TLE_LINE1":"1 53666U 22105U   22290.91667824  .00005842  00000-0  45964-3 0  9994","MEAN_MOTION_DOT":"0.00005842","SITE":"AFWTR","FILE":"3620294","TIME_SYSTEM":"UTC","CENTER_NAME":"EARTH","EPHEMERIS_TYPE":"0","DECAY_DATE":null,"RA_OF_ASC_NODE":"170.4511","SEMIMAJOR_AXIS":"6941.292"},{"TIME_SYSTEM":"UTC","FILE":"3620294","CENTER_NAME":"EARTH","EPHEMERIS_TYPE":"0","MEAN_MOTION_DOT":"-0.00028420","SITE":"AFWTR","SEMIMAJOR_AXIS":"6941.183","RA_OF_ASC_NODE":"170.4505","DECAY_DATE":null,"ARG_OF_PERICENTER":"133.0111","ECCENTRICITY":"0.00022310","EPOCH":"2022-10-17T22:00:00.999936","INCLINATION":"97.6550","ELEMENT_SET_NO":"999","COUNTRY_CODE":"US","TLE_LINE1":"1 53667U 22105V   22290.91667824 -.00028420  00000-0 -22176-2 0  9993","BSTAR":"-0.00221760000000","CLASSIFICATION_TYPE":"U","OBJECT_TYPE":"PAYLOAD","REV_AT_EPOCH":"130","OBJECT_NAME":"STARLINK-4406","PERIOD":"95.920","MEAN_MOTION":"15.01248201","APOAPSIS":"564.597","MEAN_ELEMENT_THEORY":"SGP4","RCS_SIZE":"LARGE","LAUNCH_DATE":"2022-08-31","MEAN_MOTION_DDOT":"0.0000000000000","NORAD_CAT_ID":"53667","PERIAPSIS":"561.500","REF_FRAME":"TEME","OBJECT_ID":"2022-105V","TLE_LINE2":"2 53667  97.6550 170.4505 0002231 133.0111  29.7710 15.01248201  1305","GP_ID":"215451528","MEAN_ANOMALY":"29.7710"},{"REV_AT_EPOCH":"130","OBJECT_NAME":"STARLINK-4458","CLASSIFICATION_TYPE":"U","OBJECT_TYPE":"PAYLOAD","ARG_OF_PERICENTER":"133.7440","EPOCH":"2022-10-17T22:00:00.999936","INCLINATION":"97.6543","ELEMENT_SET_NO":"999","ECCENTRICITY":"0.00022570","COUNTRY_CODE":"US","TLE_LINE1":"1 53668U 22105W   22290.91667824  .00006591  00000-0  51784-3 0  9995","BSTAR":"0.00051784000000","CENTER_NAME":"EARTH","FILE":"3620294","TIME_SYSTEM":"UTC","EPHEMERIS_TYPE":"0","SITE":"AFWTR","MEAN_MOTION_DOT":"0.00006591","SEMIMAJOR_AXIS":"6941.280","RA_OF_ASC_NODE":"170.4506","DECAY_DATE":null,"REF_FRAME":"TEME","OBJECT_ID":"2022-105W","TLE_LINE2":"2 53668  97.6543 170.4506 0002257 133.7440  69.0454 15.01216751  1306","GP_ID":"215452265","MEAN_ANOMALY":"69.0454","MEAN_MOTION_DDOT":"0.0000000000000","NORAD_CAT_ID":"53668","PERIAPSIS":"561.579","MEAN_ELEMENT_THEORY":"SGP4","RCS_SIZE":"LARGE","LAUNCH_DATE":"2022-08-31","PERIOD":"95.922","MEAN_MOTION":"15.01216751","APOAPSIS":"564.712"}];
